{
  "type": "FeatureCollection",
  "features": [
    {
      "type": "Feature",
      "properties": {
        "norad_id": 37006,
        "name": "FENGYUN 1C DEB",
        "group": "fengyun-1c-debris",
        "lat": -10.67970189496513,
        "lon": -130.01340518031577,
        "alt_km": 703.8012636092853,
        "timestamp": "2025-12-06T07:31:40.525725+00:00",
        "meta_object_name": "FENGYUN 1C DEB",
        "meta_object_id": "1999-025ECN",
        "meta_epoch": "2025-11-30T22:17:22.604640",
        "meta_mean_motion": 14.48720025,
        "meta_eccentricity": 0.02561349,
        "meta_inclination": 99.2981,
        "meta_ra_of_asc_node": 222.2839,
        "meta_arg_of_pericenter": 283.324,
        "meta_mean_anomaly": 73.9509,
        "meta_ephemeris_type": 0,
        "meta_classification_type": "U",
        "meta_norad_cat_id": 37006,
        "meta_element_set_no": 999,
        "meta_rev_at_epoch": 64943,
        "meta_bstar": 0.00098281369,
        "meta_mean_motion_dot": 5.562e-05,
        "meta_mean_motion_ddot": 0,
        "tle_line1": "1 37006U 99025ECN 25334.92873385  .00005562  00000+0  98281-3 0  9991",
        "tle_line2": "2 37006  99.2981 222.2839 0256134 283.3240  73.9509 14.48720025649439"
      },
      "geometry": {
        "type": "Point",
        "coordinates": [
          -130.01340518031577,
          -10.67970189496513
        ]
      }
    },
    {
      "type": "Feature",
      "properties": {
        "norad_id": 37008,
        "name": "FENGYUN 1C DEB",
        "group": "fengyun-1c-debris",
        "lat": -71.95631875204451,
        "lon": -110.51127752616692,
        "alt_km": 831.3888069921577,
        "timestamp": "2025-12-06T07:31:40.525735+00:00",
        "meta_object_name": "FENGYUN 1C DEB",
        "meta_object_id": "1999-025ECQ",
        "meta_epoch": "2025-12-03T06:40:56.896320",
        "meta_mean_motion": 14.07864838,
        "meta_eccentricity": 0.0061332,
        "meta_inclination": 99.1352,
        "meta_ra_of_asc_node": 96.0185,
        "meta_arg_of_pericenter": 279.9082,
        "meta_mean_anomaly": 79.5167,
        "meta_ephemeris_type": 0,
        "meta_classification_type": "U",
        "meta_norad_cat_id": 37008,
        "meta_element_set_no": 999,
        "meta_rev_at_epoch": 60181,
        "meta_bstar": 0.00175,
        "meta_mean_motion_dot": 2.974e-05,
        "meta_mean_motion_ddot": 0,
        "tle_line1": "1 37008U 99025ECQ 25337.27843630  .00002974  00000+0  17500-2 0  9992",
        "tle_line2": "2 37008  99.1352  96.0185 0061332 279.9082  79.5167 14.07864838601810"
      },
      "geometry": {
        "type": "Point",
        "coordinates": [
          -110.51127752616692,
          -71.95631875204451
        ]
      }
    },
    {
      "type": "Feature",
      "properties": {
        "norad_id": 37017,
        "name": "FENGYUN 1C DEB",
        "group": "fengyun-1c-debris",
        "lat": -5.063884143871142,
        "lon": 103.85461103688137,
        "alt_km": 951.0730028227163,
        "timestamp": "2025-12-06T07:31:40.525745+00:00",
        "meta_object_name": "FENGYUN 1C DEB",
        "meta_object_id": "1999-025ECZ",
        "meta_epoch": "2025-12-02T02:39:25.684416",
        "meta_mean_motion": 14.40374122,
        "meta_eccentricity": 0.02839314,
        "meta_inclination": 98.7881,
        "meta_ra_of_asc_node": 280.3191,
        "meta_arg_of_pericenter": 36.7665,
        "meta_mean_anomaly": 325.2632,
        "meta_ephemeris_type": 0,
        "meta_classification_type": "U",
        "meta_norad_cat_id": 37017,
        "meta_element_set_no": 999,
        "meta_rev_at_epoch": 61008,
        "meta_bstar": 0.0019565669,
        "meta_mean_motion_dot": 9.982e-05,
        "meta_mean_motion_ddot": 0,
        "tle_line1": "1 37017U 99025ECZ 25336.11071394  .00009982  00000+0  19566-2 0  9994",
        "tle_line2": "2 37017  98.7881 280.3191 0283931  36.7665 325.2632 14.40374122610080"
      },
      "geometry": {
        "type": "Point",
        "coordinates": [
          103.85461103688137,
          -5.063884143871142
        ]
      }
    },
    {
      "type": "Feature",
      "properties": {
        "norad_id": 37021,
        "name": "FENGYUN 1C DEB",
        "group": "fengyun-1c-debris",
        "lat": 59.59487735836791,
        "lon": -168.24670772983487,
        "alt_km": 888.6539096661954,
        "timestamp": "2025-12-06T07:31:40.525756+00:00",
        "meta_object_name": "FENGYUN 1C DEB",
        "meta_object_id": "1999-025EDD",
        "meta_epoch": "2025-12-04T08:05:12.810048",
        "meta_mean_motion": 14.32214059,
        "meta_eccentricity": 0.0175512,
        "meta_inclination": 98.3859,
        "meta_ra_of_asc_node": 355.2821,
        "meta_arg_of_pericenter": 276.8323,
        "meta_mean_anomaly": 97.3533,
        "meta_ephemeris_type": 0,
        "meta_classification_type": "U",
        "meta_norad_cat_id": 37021,
        "meta_element_set_no": 999,
        "meta_rev_at_epoch": 69934,
        "meta_bstar": 0.0015095,
        "meta_mean_motion_dot": 4.777e-05,
        "meta_mean_motion_ddot": 0,
        "tle_line1": "1 37021U 99025EDD 25338.33695382  .00004777  00000+0  15095-2 0  9994",
        "tle_line2": "2 37021  98.3859 355.2821 0175512 276.8323  97.3533 14.32214059699347"
      },
      "geometry": {
        "type": "Point",
        "coordinates": [
          -168.24670772983487,
          59.59487735836791
        ]
      }
    },
    {
      "type": "Feature",
      "properties": {
        "norad_id": 37028,
        "name": "FENGYUN 1C DEB",
        "group": "fengyun-1c-debris",
        "lat": -11.595977403028781,
        "lon": -110.36610913244257,
        "alt_km": 835.1080453261557,
        "timestamp": "2025-12-06T07:31:40.525766+00:00",
        "meta_object_name": "FENGYUN 1C DEB",
        "meta_object_id": "1999-025EDL",
        "meta_epoch": "2025-12-03T12:03:55.407168",
        "meta_mean_motion": 14.22624791,
        "meta_eccentricity": 0.00324291,
        "meta_inclination": 99.2455,
        "meta_ra_of_asc_node": 244.7709,
        "meta_arg_of_pericenter": 124.7401,
        "meta_mean_anomaly": 235.6837,
        "meta_ephemeris_type": 0,
        "meta_classification_type": "U",
        "meta_norad_cat_id": 37028,
        "meta_element_set_no": 999,
        "meta_rev_at_epoch": 60344,
        "meta_bstar": 0.0024005824,
        "meta_mean_motion_dot": 5.352e-05,
        "meta_mean_motion_ddot": 0,
        "tle_line1": "1 37028U 99025EDL 25337.50272462  .00005352  00000+0  24006-2 0  9991",
        "tle_line2": "2 37028  99.2455 244.7709 0032429 124.7401 235.6837 14.22624791603447"
      },
      "geometry": {
        "type": "Point",
        "coordinates": [
          -110.36610913244257,
          -11.595977403028781
        ]
      }
    },
    {
      "type": "Feature",
      "properties": {
        "norad_id": 37036,
        "name": "FENGYUN 1C DEB",
        "group": "fengyun-1c-debris",
        "lat": -12.905132644882162,
        "lon": 151.2978447252626,
        "alt_km": 930.2074793617876,
        "timestamp": "2025-12-06T07:31:40.525776+00:00",
        "meta_object_name": "FENGYUN 1C DEB",
        "meta_object_id": "1999-025EDU",
        "meta_epoch": "2025-11-29T17:13:14.386368",
        "meta_mean_motion": 14.03538863,
        "meta_eccentricity": 0.01244167,
        "meta_inclination": 98.713,
        "meta_ra_of_asc_node": 326.9903,
        "meta_arg_of_pericenter": 91.472,
        "meta_mean_anomaly": 270.0704,
        "meta_ephemeris_type": 0,
        "meta_classification_type": "U",
        "meta_norad_cat_id": 37036,
        "meta_element_set_no": 999,
        "meta_rev_at_epoch": 63565,
        "meta_bstar": 0.00035846566,
        "meta_mean_motion_dot": 5.61e-06,
        "meta_mean_motion_ddot": 0,
        "tle_line1": "1 37036U 99025EDU 25333.71752762  .00000561  00000+0  35847-3 0  9998",
        "tle_line2": "2 37036  98.7130 326.9903 0124416  91.4720 270.0704 14.03538863635658"
      },
      "geometry": {
        "type": "Point",
        "coordinates": [
          151.2978447252626,
          -12.905132644882162
        ]
      }
    },
    {
      "type": "Feature",
      "properties": {
        "norad_id": 37044,
        "name": "FENGYUN 1C DEB",
        "group": "fengyun-1c-debris",
        "lat": 12.772087215663637,
        "lon": 84.76302078412779,
        "alt_km": 1360.7621582726306,
        "timestamp": "2025-12-06T07:31:40.525798+00:00",
        "meta_object_name": "FENGYUN 1C DEB",
        "meta_object_id": "1999-025EEC",
        "meta_epoch": "2025-12-04T02:53:44.693952",
        "meta_mean_motion": 13.70576401,
        "meta_eccentricity": 0.05097958,
        "meta_inclination": 98.9648,
        "meta_ra_of_asc_node": 84.7582,
        "meta_arg_of_pericenter": 184.1906,
        "meta_mean_anomaly": 175.4892,
        "meta_ephemeris_type": 0,
        "meta_classification_type": "U",
        "meta_norad_cat_id": 37044,
        "meta_element_set_no": 999,
        "meta_rev_at_epoch": 83740,
        "meta_bstar": 0.0059542897,
        "meta_mean_motion_dot": 0.0001335,
        "meta_mean_motion_ddot": 0,
        "tle_line1": "1 37044U 99025EEC 25338.12065618  .00013350  00000+0  59543-2 0  9992",
        "tle_line2": "2 37044  98.9648  84.7582 0509795 184.1906 175.4892 13.70576401837404"
      },
      "geometry": {
        "type": "Point",
        "coordinates": [
          84.76302078412779,
          12.772087215663637
        ]
      }
    }
  ]
}